start=new Date('2023-02-26T00:00:00.000Z').valueOf();
sats=[{"FILE":"3839003","CLASSIFICATION_TYPE":"U","COUNTRY_CODE":"US","EPOCH":"2023-02-25T22:07:16.138848","TLE_LINE1":"1 53268U 22086AC  23056.92171457  .00001038  00000-0  83279-4 0  9999","REF_FRAME":"TEME","PERIAPSIS":"538.808","TLE_LINE2":"2 53268  53.2162 127.0845 0001365  90.2385 269.8764 15.08837752 33839","LAUNCH_DATE":"2022-07-24","GP_ID":"226914701","RCS_SIZE":"LARGE","OBJECT_ID":"2022-086AC","CENTER_NAME":"EARTH","MEAN_ANOMALY":"269.8764","PERIOD":"95.438","INCLINATION":"53.2162","REV_AT_EPOCH":"3383","MEAN_ELEMENT_THEORY":"SGP4","DECAY_DATE":null,"TIME_SYSTEM":"UTC","ELEMENT_SET_NO":"999","SEMIMAJOR_AXIS":"6917.887","NORAD_CAT_ID":"53268","MEAN_MOTION":"15.08837752","MEAN_MOTION_DOT":"0.00001038","APOAPSIS":"540.697","BSTAR":"0.00008327900000","OBJECT_TYPE":"PAYLOAD","RA_OF_ASC_NODE":"127.0845","ECCENTRICITY":"0.00013650","EPHEMERIS_TYPE":"0","SITE":"AFETR","MEAN_MOTION_DDOT":"0.0000000000000","ARG_OF_PERICENTER":"90.2385","OBJECT_NAME":"STARLINK-4109"},{"EPOCH":"2023-02-25T15:31:09.087744","COUNTRY_CODE":"US","TLE_LINE1":"1 53269U 22086AD  23056.64663296  .00004856  00000-0  32302-3 0  9997","FILE":"3839003","CLASSIFICATION_TYPE":"U","RCS_SIZE":"LARGE","GP_ID":"226914948","LAUNCH_DATE":"2022-07-24","CENTER_NAME":"EARTH","OBJECT_ID":"2022-086AD","PERIAPSIS":"538.681","REF_FRAME":"TEME","TLE_LINE2":"2 53269  53.2156 118.3160 0001566  93.0759 267.0412 15.08833726 33922","TIME_SYSTEM":"UTC","DECAY_DATE":null,"MEAN_ELEMENT_THEORY":"SGP4","MEAN_MOTION_DOT":"0.00004856","MEAN_MOTION":"15.08833726","SEMIMAJOR_AXIS":"6917.900","NORAD_CAT_ID":"53269","ELEMENT_SET_NO":"999","PERIOD":"95.438","MEAN_ANOMALY":"267.0412","REV_AT_EPOCH":"3392","INCLINATION":"53.2156","ECCENTRICITY":"0.00015660","EPHEMERIS_TYPE":"0","OBJECT_TYPE":"PAYLOAD","RA_OF_ASC_NODE":"118.3160","BSTAR":"0.00032302000000","OBJECT_NAME":"STARLINK-4057","ARG_OF_PERICENTER":"93.0759","SITE":"AFETR","MEAN_MOTION_DDOT":"0.0000000000000","APOAPSIS":"540.848"},{"INCLINATION":"53.2152","REV_AT_EPOCH":"3396","MEAN_ANOMALY":"277.7300","PERIOD":"95.438","ELEMENT_SET_NO":"999","SEMIMAJOR_AXIS":"6917.889","NORAD_CAT_ID":"53271","MEAN_MOTION":"15.08837205","MEAN_MOTION_DOT":"0.00009981","MEAN_ELEMENT_THEORY":"SGP4","DECAY_DATE":null,"TIME_SYSTEM":"UTC","APOAPSIS":"540.443","SITE":"AFETR","MEAN_MOTION_DDOT":"0.0000000000000","ARG_OF_PERICENTER":"82.3805","OBJECT_NAME":"STARLINK-4069","BSTAR":"0.00064436000000","RA_OF_ASC_NODE":"117.1628","OBJECT_TYPE":"PAYLOAD","EPHEMERIS_TYPE":"0","ECCENTRICITY":"0.00009960","CLASSIFICATION_TYPE":"U","FILE":"3839003","TLE_LINE1":"1 53271U 22086AF  23056.90423250  .00009981  00000-0  64436-3 0  9990","COUNTRY_CODE":"US","EPOCH":"2023-02-25T21:42:05.688000","TLE_LINE2":"2 53271  53.2152 117.1628 0000996  82.3805 277.7300 15.08837205 33960","REF_FRAME":"TEME","PERIAPSIS":"539.065","OBJECT_ID":"2022-086AF","CENTER_NAME":"EARTH","LAUNCH_DATE":"2022-07-24","GP_ID":"226914696","RCS_SIZE":"LARGE"},{"GP_ID":"226913450","LAUNCH_DATE":"2022-07-24","RCS_SIZE":"LARGE","OBJECT_ID":"2022-086AG","CENTER_NAME":"EARTH","PERIAPSIS":"538.729","REF_FRAME":"TEME","TLE_LINE2":"2 53272  53.2166 118.2995 0001501  75.3604 284.7555 15.08832697 33923","EPOCH":"2023-02-25T15:36:27.196128","COUNTRY_CODE":"US","TLE_LINE1":"1 53272U 22086AG  23056.65031477  .00008079  00000-0  52522-3 0  9999","FILE":"3839003","CLASSIFICATION_TYPE":"U","OBJECT_TYPE":"PAYLOAD","RA_OF_ASC_NODE":"118.2995","BSTAR":"0.00052522000000","ECCENTRICITY":"0.00015010","EPHEMERIS_TYPE":"0","ARG_OF_PERICENTER":"75.3604","MEAN_MOTION_DDOT":"0.0000000000000","SITE":"AFETR","OBJECT_NAME":"STARLINK-4122","APOAPSIS":"540.806","MEAN_ELEMENT_THEORY":"SGP4","DECAY_DATE":null,"TIME_SYSTEM":"UTC","NORAD_CAT_ID":"53272","SEMIMAJOR_AXIS":"6917.903","ELEMENT_SET_NO":"999","MEAN_MOTION_DOT":"0.00008079","MEAN_MOTION":"15.08832697","MEAN_ANOMALY":"284.7555","PERIOD":"95.438","INCLINATION":"53.2166","REV_AT_EPOCH":"3392"},{"ECCENTRICITY":"0.00014620","EPHEMERIS_TYPE":"0","BSTAR":"0.00079491000000","OBJECT_TYPE":"PAYLOAD","RA_OF_ASC_NODE":"117.1960","OBJECT_NAME":"STARLINK-4051","SITE":"AFETR","MEAN_MOTION_DDOT":"0.0000000000000","ARG_OF_PERICENTER":"103.9881","APOAPSIS":"540.738","TIME_SYSTEM":"UTC","DECAY_DATE":null,"MEAN_ELEMENT_THEORY":"SGP4","MEAN_MOTION":"15.08846064","MEAN_MOTION_DOT":"0.00012388","ELEMENT_SET_NO":"999","NORAD_CAT_ID":"53273","SEMIMAJOR_AXIS":"6917.862","PERIOD":"95.437","MEAN_ANOMALY":"256.1274","REV_AT_EPOCH":"3395","INCLINATION":"53.2138","RCS_SIZE":"LARGE","LAUNCH_DATE":"2022-07-24","GP_ID":"226914201","CENTER_NAME":"EARTH","OBJECT_ID":"2022-086AH","REF_FRAME":"TEME","PERIAPSIS":"538.715","TLE_LINE2":"2 53273  53.2138 117.1960 0001462 103.9881 256.1274 15.08846064 33951","COUNTRY_CODE":"US","EPOCH":"2023-02-25T21:31:28.649568","TLE_LINE1":"1 53273U 22086AH  23056.89685937  .00012388  00000-0  79491-3 0  9994","FILE":"3839003","CLASSIFICATION_TYPE":"U"},{"OBJECT_ID":"2022-086AJ","CENTER_NAME":"EARTH","LAUNCH_DATE":"2022-07-24","GP_ID":"226914449","RCS_SIZE":"LARGE","TLE_LINE2":"2 53274  53.2151 118.3328 0001766  88.7902 271.3293 15.08826973 33923","REF_FRAME":"TEME","PERIAPSIS":"538.564","TLE_LINE1":"1 53274U 22086AJ  23056.64295604  .00005376  00000-0  35573-3 0  9998","COUNTRY_CODE":"US","EPOCH":"2023-02-25T15:25:51.401856","CLASSIFICATION_TYPE":"U","FILE":"3839003","MEAN_MOTION_DDOT":"0.0000000000000","SITE":"AFETR","ARG_OF_PERICENTER":"88.7902","OBJECT_NAME":"STARLINK-4050","BSTAR":"0.00035573000000","RA_OF_ASC_NODE":"118.3328","OBJECT_TYPE":"PAYLOAD","ECCENTRICITY":"0.00017660","EPHEMERIS_TYPE":"0","APOAPSIS":"541.007","ELEMENT_SET_NO":"999","SEMIMAJOR_AXIS":"6917.920","NORAD_CAT_ID":"53274","MEAN_MOTION":"15.08826973","MEAN_MOTION_DOT":"0.00005376","MEAN_ELEMENT_THEORY":"SGP4","TIME_SYSTEM":"UTC","DECAY_DATE":null,"INCLINATION":"53.2151","REV_AT_EPOCH":"3392","MEAN_ANOMALY":"271.3293","PERIOD":"95.438"},{"CLASSIFICATION_TYPE":"U","FILE":"3839003","TLE_LINE1":"1 53275U 22086AK  23056.89319779  .00013012  00000-0  83412-3 0  9997","COUNTRY_CODE":"US","EPOCH":"2023-02-25T21:26:12.289056","TLE_LINE2":"2 53275  53.2125 117.2170 0001485  76.3688 283.7469 15.08839888 33954","REF_FRAME":"TEME","PERIAPSIS":"538.718","CENTER_NAME":"EARTH","OBJECT_ID":"2022-086AK","RCS_SIZE":"LARGE","LAUNCH_DATE":"2022-07-24","GP_ID":"226915196","REV_AT_EPOCH":"3395","INCLINATION":"53.2125","PERIOD":"95.438","MEAN_ANOMALY":"283.7469","MEAN_MOTION":"15.08839888","MEAN_MOTION_DOT":"0.00013012","ELEMENT_SET_NO":"999","NORAD_CAT_ID":"53275","SEMIMAJOR_AXIS":"6917.881","TIME_SYSTEM":"UTC","DECAY_DATE":null,"MEAN_ELEMENT_THEORY":"SGP4","APOAPSIS":"540.773","OBJECT_NAME":"STARLINK-4179","MEAN_MOTION_DDOT":"0.0000000000000","SITE":"AFETR","ARG_OF_PERICENTER":"76.3688","ECCENTRICITY":"0.00014850","EPHEMERIS_TYPE":"0","BSTAR":"0.00083412000000","RA_OF_ASC_NODE":"117.2170","OBJECT_TYPE":"PAYLOAD"},{"MEAN_ANOMALY":"276.7924","PERIOD":"95.438","INCLINATION":"53.2149","REV_AT_EPOCH":"3395","MEAN_ELEMENT_THEORY":"SGP4","DECAY_DATE":null,"TIME_SYSTEM":"UTC","ELEMENT_SET_NO":"999","SEMIMAJOR_AXIS":"6917.879","NORAD_CAT_ID":"53276","MEAN_MOTION":"15.08840400","MEAN_MOTION_DOT":"0.00011250","APOAPSIS":"540.925","BSTAR":"0.00072378000000","OBJECT_TYPE":"PAYLOAD","RA_OF_ASC_NODE":"117.1807","EPHEMERIS_TYPE":"0","ECCENTRICITY":"0.00017070","SITE":"AFETR","MEAN_MOTION_DDOT":"0.0000000000000","ARG_OF_PERICENTER":"83.3263","OBJECT_NAME":"STARLINK-4174","FILE":"3839003","CLASSIFICATION_TYPE":"U","COUNTRY_CODE":"US","EPOCH":"2023-02-25T21:36:48.020256","TLE_LINE1":"1 53276U 22086AL  23056.90055579  .00011250  00000-0  72378-3 0  9996","REF_FRAME":"TEME","PERIAPSIS":"538.563","TLE_LINE2":"2 53276  53.2149 117.1807 0001707  83.3263 276.7924 15.08840400 33951","LAUNCH_DATE":"2022-07-24","GP_ID":"226913951","RCS_SIZE":"LARGE","OBJECT_ID":"2022-086AL","CENTER_NAME":"EARTH"},{"APOAPSIS":"540.654","OBJECT_NAME":"STARLINK-4178","MEAN_MOTION_DDOT":"0.0000000000000","SITE":"AFETR","ARG_OF_PERICENTER":"95.3831","ECCENTRICITY":"0.00012570","EPHEMERIS_TYPE":"0","BSTAR":"0.00001349700000","RA_OF_ASC_NODE":"118.7629","OBJECT_TYPE":"PAYLOAD","REV_AT_EPOCH":"3390","INCLINATION":"53.2166","PERIOD":"95.438","MEAN_ANOMALY":"264.7304","MEAN_MOTION":"15.08827099","MEAN_MOTION_DOT":"-0.00000073","ELEMENT_SET_NO":"999","NORAD_CAT_ID":"53277","SEMIMAJOR_AXIS":"6917.920","DECAY_DATE":null,"TIME_SYSTEM":"UTC","MEAN_ELEMENT_THEORY":"SGP4","TLE_LINE2":"2 53277  53.2166 118.7629 0001257  95.3831 264.7304 15.08827099 33907","REF_FRAME":"TEME","PERIAPSIS":"538.915","CENTER_NAME":"EARTH","OBJECT_ID":"2022-086AM","RCS_SIZE":"LARGE","LAUNCH_DATE":"2022-07-24","GP_ID":"226858621","CLASSIFICATION_TYPE":"U","FILE":"3837605","TLE_LINE1":"1 53277U 22086AM  23056.55463875 -.00000073  00000-0  13497-4 0  9990","COUNTRY_CODE":"US","EPOCH":"2023-02-25T13:18:40.788000"},{"MEAN_ANOMALY":"267.7623","PERIOD":"95.438","INCLINATION":"53.2148","REV_AT_EPOCH":"3395","MEAN_ELEMENT_THEORY":"SGP4","DECAY_DATE":null,"TIME_SYSTEM":"UTC","ELEMENT_SET_NO":"999","NORAD_CAT_ID":"53278","SEMIMAJOR_AXIS":"6917.884","MEAN_MOTION":"15.08838952","MEAN_MOTION_DOT":"-0.00000128","APOAPSIS":"540.611","BSTAR":"0.00001006900000","OBJECT_TYPE":"PAYLOAD","RA_OF_ASC_NODE":"117.2318","EPHEMERIS_TYPE":"0","ECCENTRICITY":"0.00012460","SITE":"AFETR","MEAN_MOTION_DDOT":"0.0000000000000","ARG_OF_PERICENTER":"92.3511","OBJECT_NAME":"STARLINK-4180","FILE":"3839003","CLASSIFICATION_TYPE":"U","COUNTRY_CODE":"US","EPOCH":"2023-02-25T21:20:53.828160","TLE_LINE1":"1 53278U 22086AN  23056.88951190 -.00000128  00000-0  10069-4 0  9992","REF_FRAME":"TEME","PERIAPSIS":"538.887","TLE_LINE2":"2 53278  53.2148 117.2318 0001246  92.3511 267.7623 15.08838952 33959","LAUNCH_DATE":"2022-07-24","GP_ID":"226914949","RCS_SIZE":"LARGE","OBJECT_ID":"2022-086AN","CENTER_NAME":"EARTH"}];
